STARLINK-2545           
1 48289U 21036P   26068.31040522  .00000149  00000+0  17143-4 0  9995
2 48289  53.1594  77.4373 0001079  83.2666 276.8457 15.30209224268349
TEVEL2-4                
1 63213U 25052D   26068.69417973  .00020990  00000+0  70363-3 0  9998
2 63213  97.4009 325.1237 0004733  95.3468 264.8313 15.30925813 54879
